IRIDIUM 166             
1 43570U 18061B   24315.33252829  .00000451  00000+0  15414-3 0  9991
2 43570  86.3926 300.7259 0002370  82.3887 277.7578 14.34221117329710
IRIDIUM 158             
1 43571U 18061C   24315.37058411 -.00000058  00000+0 -27907-4 0  9993
2 43571  86.3920 300.7198 0002339  87.7292 272.4171 14.34216691329689
IRIDIUM 165             
1 43572U 18061D   24315.81456586 -.00000060  00000+0 -28386-4 0  9993
2 43572  86.3925 300.5694 0002042  86.7976 273.3453 14.34217012329774
IRIDIUM 155             
1 43573U 18061E   24315.70674211  .00000141  00000+0  43137-4 0  9998
2 43573  86.3921 300.5121 0002435  85.4477 274.6997 14.34217675329732
IRIDIUM 154             
1 43574U 18061F   24315.47840411  .00000525  00000+0  18037-3 0  9996
2 43574  86.3929 300.7125 0002222  91.9626 268.1825 14.34215372329740
IRIDIUM 163             
1 43575U 18061G   24315.80822041 -.00000061  00000+0 -28735-4 0  9997
2 43575  86.3920 300.5084 0002279  92.7366 267.4091 14.34214589329764
IRIDIUM 156             
1 43576U 18061H   24315.22470535  .00000491  00000+0  16841-3 0  9990
2 43576  86.3925 300.7592 0002485  81.7942 278.3536 14.34217403329676
IRIDIUM 164             
1 43577U 18061J   24315.69405629  .00000573  00000+0  19762-3 0  9990
2 43577  86.3924 300.5937 0002100  84.8915 275.2520 14.34218774329788
